[{"OBJECT_NAME":"BEIJING-3B","OBJECT_ID":"2022-103A","EPOCH":"2026-03-09T23:12:38.807712","MEAN_MOTION":14.86939199,"ECCENTRICITY":0.00253745,"INCLINATION":97.8061,"RA_OF_ASC_NODE":148.0995,"ARG_OF_PERICENTER":23.8103,"MEAN_ANOMALY":336.4281,"EPHEMERIS_TYPE":0,"CLASSIFICATION_TYPE":"U","NORAD_CAT_ID":53587,"ELEMENT_SET_NO":999,"REV_AT_EPOCH":19234,"BSTAR":0.00021963538,"MEAN_MOTION_DOT":1.92e-5,"MEAN_MOTION_DDOT":0},{"OBJECT_NAME":"AETHER-10","OBJECT_ID":"2026-004U","EPOCH":"2026-03-09T23:23:04.191648","MEAN_MOTION":14.88103238,"ECCENTRICITY":0.0006729,"INCLINATION":97.804,"RA_OF_ASC_NODE":69.2149,"ARG_OF_PERICENTER":90.6423,"MEAN_ANOMALY":269.5564,"EPHEMERIS_TYPE":0,"CLASSIFICATION_TYPE":"U","NORAD_CAT_ID":67381,"ELEMENT_SET_NO":999,"REV_AT_EPOCH":853,"BSTAR":0.00015076297,"MEAN_MOTION_DOT":1.333e-5,"MEAN_MOTION_DDOT":0}]
